[
    {
        "CCSDS_OMM_VERS": "3.0",
        "COMMENT": "GENERATED VIA SPACE-TRACK.ORG API",
        "CREATION_DATE": "2025-04-14T03:05:54",
        "ORIGINATOR": "18 SPCS",
        "OBJECT_NAME": "COSMOS 2564 (GLONASS)",
        "OBJECT_ID": "2022-161A",
        "CENTER_NAME": "EARTH",
        "REF_FRAME": "TEME",
        "TIME_SYSTEM": "UTC",
        "MEAN_ELEMENT_THEORY": "SGP4",
        "EPOCH": "2025-04-12T22:19:02.470080",
        "MEAN_MOTION": "2.13102036",
        "ECCENTRICITY": "0.00098750",
        "INCLINATION": "64.7376",
        "RA_OF_ASC_NODE": "206.9981",
        "ARG_OF_PERICENTER": "216.2107",
        "MEAN_ANOMALY": "143.7357",
        "EPHEMERIS_TYPE": "0",
        "CLASSIFICATION_TYPE": "U",
        "NORAD_CAT_ID": "54377",
        "ELEMENT_SET_NO": "999",
        "REV_AT_EPOCH": "1846",
        "BSTAR": "0.00000000000000",
        "MEAN_MOTION_DOT": "0.00000006",
        "MEAN_MOTION_DDOT": "0.0000000000000",
        "SEMIMAJOR_AXIS": "25508.022",
        "PERIOD": "675.733",
        "APOAPSIS": "19155.076",
        "PERIAPSIS": "19104.697",
        "OBJECT_TYPE": "PAYLOAD",
        "RCS_SIZE": "LARGE",
        "COUNTRY_CODE": "CIS",
        "LAUNCH_DATE": "2022-11-28",
        "SITE": "PKMTR",
        "DECAY_DATE": null,
        "FILE": "4701263",
        "GP_ID": "285544205",
        "TLE_LINE0": "0 COSMOS 2564 (GLONASS)",
        "TLE_LINE1": "1 54377U 22161A   25102.92988970  .00000006  00000-0  00000-0 0  9996",
        "TLE_LINE2": "2 54377  64.7376 206.9981 0009875 216.2107 143.7357  2.13102036 18461"
    }
]